NORAD_CAT_ID,OBJECT_NAME,OBJECT_TYPE,EPOCH,MEAN_MOTION,ECCENTRICITY,INCLINATION,RA_OF_ASC_NODE,ARG_OF_PERICENTER,MEAN_ANOMALY,BSTAR,MEAN_MOTION_DOT,MEAN_MOTION_DDOT,TLE_LINE0,TLE_LINE1,TLE_LINE2,SEMIMAJOR_AXIS,PERIOD,APOGEE,PERIGEE,DECAYED
49166.0,STARLINK-3089,PAYLOAD,2022-05-20 22:00:00,14.96691731,0.000334,69.9995,175.4097,266.3981,30.2698,0.0041783,0.00048034,0.0,0 STARLINK-3089,1 49166U 21082AN  22140.91667824  .00048034  00000-0  41783-2 0  9995,2 49166  69.9995 175.4097 0003340 266.3981  30.2698 14.96691731  1302,6955.264,96.212,579.452,574.806,0.0
49166.0,STARLINK-3089,PAYLOAD,2022-05-21 06:00:00,14.96733456,0.0003333,69.9998,174.5712,267.8507,24.3589,-0.0049523999999999,-0.00056348,0.0,0 STARLINK-3089,1 49166U 21082AN  22141.25001157 -.00056348  00000-0 -49524-2 0  9994,2 49166  69.9998 174.5712 0003333 267.8507  24.3589 14.96733456 39711,6955.134,96.21,579.318,574.681,0.0
49166.0,STARLINK-3089,PAYLOAD,2022-05-21 14:00:01,14.9669981,0.0003264,69.9994,173.7329,272.3541,15.4599,0.001084,0.00012333,0.0,0 STARLINK-3089,1 49166U 21082AN  22141.58335648  .00012333  00000-0  10840-2 0  9998,2 49166  69.9994 173.7329 0003264 272.3541  15.4599 14.96699810  1305,6955.239000000001,96.212,579.374,574.8340000000002,0.0
49166.0,STARLINK-3089,PAYLOAD,2022-05-21 22:00:00,14.96672543,0.0003237,69.9996,172.8945,266.305,16.9934,0.0056837,0.00065504,0.0,0 STARLINK-3089,1 49166U 21082AN  22141.91667824  .00065504  00000-0  56837-2 0  9993,2 49166  69.9996 172.8945 0003237 266.3050  16.9934 14.96672543 39819,6955.323,96.213,579.44,574.937,0.0
49166.0,STARLINK-3089,PAYLOAD,2022-05-22 14:00:01,14.96712636,0.0003282,69.9996,171.2178,271.6709,2.6916,0.00047841,5.388e-05,0.0,0 STARLINK-3089,1 49166U 21082AN  22142.58334491  .00005388  00000-0  47841-3 0  9998,2 49166  69.9996 171.2178 0003282 271.6709   2.6916 14.96712636 39911,6955.199000000001,96.211,579.347,574.781,0.0
49166.0,STARLINK-3089,PAYLOAD,2022-05-22 22:00:01,14.96681491,0.0003286,69.9997,170.3794,265.5736,4.4104,0.0058841,0.00067856,0.0,0 STARLINK-3089,1 49166U 21082AN  22142.91668981  .00067856  00000-0  58841-2 0  9998,2 49166  69.9997 170.3794 0003286 265.5736   4.4104 14.96681491  1307,6955.295,96.213,579.446,574.875,0.0
49166.0,STARLINK-3089,PAYLOAD,2022-05-23 14:00:01,14.96724431,0.0003344,69.9996,168.7026,270.8008,350.2102,7.0966e-05,7.21e-06,0.0,0 STARLINK-3089,1 49166U 21082AN  22143.58334491  .00000721  00000-0  70966-4 0  9990,2 49166  69.9996 168.7026 0003344 270.8008 350.2102 14.96724431  1303,6955.1619999999975,96.21,579.3530000000002,574.702,0.0
49166.0,STARLINK-3089,PAYLOAD,2022-05-23 16:00:00,14.96746001,0.000333,69.9995,168.493,269.9913,79.9031,-0.004236,-0.00048281,0.0,0 STARLINK-3089,1 49166U 21082AN  22143.66667824 -.00048281  00000-0 -42360-2 0  9998,2 49166  69.9995 168.4930 0003330 269.9913  79.9031 14.96746001 40072,6955.096,96.209,579.2769999999998,574.645,0.0
49166.0,STARLINK-3089,PAYLOAD,2022-05-23 22:00:01,14.96698598,0.0003338,69.9997,167.8642,264.9418,351.6977,0.0035241,0.00040462,0.0,0 STARLINK-3089,1 49166U 21082AN  22143.91668981  .00040462  00000-0  35241-2 0  9992,2 49166  69.9997 167.8642 0003338 264.9418 351.6977 14.96698598  1309,6955.2419999999975,96.212,579.429,574.786,0.0
49166.0,STARLINK-3089,PAYLOAD,2022-05-24 06:00:02,14.96723283,0.0003299,70.0,167.0259,266.8244,345.3599,-0.0037995,-0.00043321,0.0,0 STARLINK-3089,1 49166U 21082AN  22144.25002315 -.00043321  00000-0 -37995-2 0  9990,2 49166  70.0000 167.0259 0003299 266.8244 345.3599 14.96723283 40153,6955.166,96.21,579.325,574.736,0.0
49166.0,STARLINK-3089,PAYLOAD,2022-05-24 14:00:01,14.96706316,0.0003272,69.9995,166.1875,270.5156,337.14,-0.00051233,-5.949e-05,0.0,0 STARLINK-3089,1 49166U 21082AN  22144.58334491 -.00005949  00000-0 -51233-3 0  9995,2 49166  69.9995 166.1875 0003272 270.5156 337.1400 14.96706316  1304,6955.219,96.211,579.359,574.808,0.0
49166.0,STARLINK-3089,PAYLOAD,2022-05-24 22:00:00,14.96668508,0.0003302,69.9996,165.3491,264.8561,338.3427,0.0059631,0.00068754,0.0,0 STARLINK-3089,1 49166U 21082AN  22144.91667824  .00068754  00000-0  59631-2 0  9991,2 49166  69.9996 165.3491 0003302 264.8561 338.3427 14.96668508 40259,6955.3359999999975,96.214,579.497,574.904,0.0
49166.0,STARLINK-3089,PAYLOAD,2022-05-25 14:00:01,14.96715868,0.0003256,69.9992,163.6725,270.5888,323.6659,-0.0011766,-0.00013533,0.0,0 STARLINK-3089,1 49166U 21082AN  22145.58334491 -.00013533  00000-0 -11766-2 0  9990,2 49166  69.9992 163.6725 0003256 270.5888 323.6659 14.96715868 40357,6955.189,96.211,579.319,574.789,0.0
49166.0,STARLINK-3089,PAYLOAD,2022-05-25 22:00:00,14.96675646,0.0003268,69.9993,162.8342,264.9781,324.827,0.005735,0.00066108,0.0,0 STARLINK-3089,1 49166U 21082AN  22145.91667824  .00066108  00000-0  57350-2 0  9999,2 49166  69.9993 162.8342 0003268 264.9781 324.8270 14.96675646  1309,6955.314,96.213,579.452,574.906,0.0
49166.0,STARLINK-3089,PAYLOAD,2022-05-26 04:59:47,14.96728429,0.0002715,69.9976,162.1008,269.5419,90.5428,-0.0002748,-3.236e-05,0.0,0 STARLINK-3089,1 49166U 21082AN  22146.20818788 -.00003236  00000-0 -27480-3 0  9996,2 49166  69.9976 162.1008 0002715 269.5419  90.5428 14.96728429 40456,6955.15,96.21,578.903,575.127,0.0
49166.0,STARLINK-3089,PAYLOAD,2022-05-26 11:24:45,14.96702815,0.0002413,69.9976,161.4284,264.2818,95.8065,0.00022177,2.447e-05,0.0,0 STARLINK-3089,1 49166U 21082AN  22146.47552601  .00002447  00000-0  22177-3 0  9993,2 49166  69.9976 161.4284 0002413 264.2818  95.8065 14.96702815 40494,6955.229,96.211,578.773,575.4159999999998,0.0
49166.0,STARLINK-3089,PAYLOAD,2022-05-26 22:00:00,14.96680947,0.0003213,69.9988,160.3192,264.9627,311.465,0.0053555,0.00061696,0.0,0 STARLINK-3089,1 49166U 21082AN  22146.91667824  .00061696  00000-0  53555-2 0  9990,2 49166  69.9988 160.3192 0003213 264.9627 311.4650 14.96680947  1302,6955.297,96.213,579.3969999999998,574.927,0.0
49166.0,STARLINK-3089,PAYLOAD,2022-05-27 14:00:01,14.9680239,0.0003212,69.9994,158.6522,267.5422,299.9438,-0.0059183,-0.00067334,0.0,0 STARLINK-3089,1 49166U 21082AN  22147.58334491 -.00067334  00000-0 -59183-2 0  9995,2 49166  69.9994 158.6522 0003212 267.5422 299.9438 14.96802390  1309,6954.920999999999,96.205,579.02,574.552,0.0
49166.0,STARLINK-3089,PAYLOAD,2022-05-27 16:00:00,14.96737615,0.0003175,69.9985,158.4327,269.2841,27.1061,-0.0047138,-0.00053663,0.0,0 STARLINK-3089,1 49166U 21082AN  22147.66667824 -.00053663  00000-0 -47138-2 0  9990,2 49166  69.9985 158.4327 0003175 269.2841  27.1061 14.96737615 40664,6955.121999999999,96.209,579.195,574.778,0.0
49166.0,STARLINK-3089,PAYLOAD,2022-05-27 22:00:01,14.9668644,0.0003208999999999,69.9985,157.8039,264.4124,298.7121,0.0050709,0.00058393,0.0,0 STARLINK-3089,1 49166U 21082AN  22147.91668981  .00058393  00000-0  50709-2 0  9994,2 49166  69.9985 157.8039 0003209 264.4124 298.7121 14.96686440  1306,6955.28,96.213,579.377,574.913,0.0
49166.0,STARLINK-3089,PAYLOAD,2022-05-28 06:00:02,14.9672462,0.0003242,69.9987,156.9654,267.4277,291.2368,-0.0018483,-0.00021188,0.0,0 STARLINK-3089,1 49166U 21082AN  22148.25002315 -.00021188  00000-0 -18483-2 0  9992,2 49166  69.9987 156.9654 0003242 267.4277 291.2368 14.96724620 40756,6955.1619999999975,96.21,579.2819999999998,574.7719999999998,0.0
49166.0,STARLINK-3089,PAYLOAD,2022-05-28 14:00:01,14.96735823,0.0003215,69.9982,156.1269,269.7838,284.3641,-0.0027684,-0.00031652,0.0,0 STARLINK-3089,1 49166U 21082AN  22148.58334491 -.00031652  00000-0 -27684-2 0  9991,2 49166  69.9982 156.1269 0003215 269.7838 284.3641 14.96735823  1305,6955.127,96.209,579.2280000000002,574.756,0.0
49166.0,STARLINK-3089,PAYLOAD,2022-05-28 22:00:00,14.96693214,0.0003262,69.9983,155.2885,263.6987,286.0125,0.0050078999999999,0.00057671,0.0,0 STARLINK-3089,1 49166U 21082AN  22148.91667824  .00057671  00000-0  50079-2 0  9998,2 49166  69.9983 155.2885 0003262 263.6987 286.0125 14.96693214 40856,6955.259,96.212,579.393,574.855,0.0
49166.0,STARLINK-3089,PAYLOAD,2022-05-29 14:00:01,14.96739718,0.0003259,69.9981,153.6116,269.242,271.5635,-0.0031266,-0.00035718,0.0,0 STARLINK-3089,1 49166U 21082AN  22149.58334491 -.00035718  00000-0 -31266-2 0  9990,2 49166  69.9981 153.6116 0003259 269.2420 271.5635 14.96739718 40959,6955.115,96.209,579.247,574.7130000000002,0.0
49166.0,STARLINK-3089,PAYLOAD,2022-05-29 22:00:00,14.96697609,0.0003313,69.9984,152.7732,263.4928,272.8784,0.0047828,0.0005506,0.0,0 STARLINK-3089,1 49166U 21082AN  22149.91667824  .00055060  00000-0  47828-2 0  9997,2 49166  69.9984 152.7732 0003313 263.4928 272.8784 14.96697609  1303,6955.246,96.212,579.415,574.806,0.0
49166.0,STARLINK-3089,PAYLOAD,2022-05-30 06:00:00,14.96728285,0.000331,69.9985,151.9348,267.1889,264.7361,-0.0014030999999999,-0.0001612,0.0,0 STARLINK-3089,1 49166U 21082AN  22150.25001157 -.00016120  00000-0 -14031-2 0  9993,2 49166  69.9985 151.9348 0003310 267.1889 264.7361 14.96728285 41054,6955.15,96.21,579.318,574.7130000000002,0.0
49166.0,STARLINK-3089,PAYLOAD,2022-05-30 08:26:33,14.96721106,0.0003213,69.9976,151.6789,265.9033,94.1758,0.00010606,1.123e-05,0.0,0 STARLINK-3089,1 49166U 21082AN  22150.35177279  .00001123  00000-0  10606-3 0  9993,2 49166  69.9976 151.6789 0003213 265.9033  94.1758 14.96721106 41071,6955.1730000000025,96.21,579.2719999999998,574.803,0.0
49166.0,STARLINK-3089,PAYLOAD,2022-05-30 22:00:00,14.96703528,0.0003297,69.9986,150.2581,263.5611,259.4834,0.0044623999999999,0.00051346,0.0,0 STARLINK-3089,1 49166U 21082AN  22150.91667824  .00051346  00000-0  44624-2 0  9993,2 49166  69.9986 150.2581 0003297 263.5611 259.4834 14.96703528 41153,6955.227,96.211,579.385,574.799,0.0
49166.0,STARLINK-3089,PAYLOAD,2022-05-31 06:00:02,14.96727938,0.0003282,69.9987,149.4198,267.7774,250.8889,-0.00093799,-0.00010815,0.0,0 STARLINK-3089,1 49166U 21082AN  22151.25002315 -.00010815  00000-0 -93799-3 0  9995,2 49166  69.9987 149.4198 0003282 267.7774 250.8889 14.96727938  1307,6955.151999999999,96.21,579.299,574.734,0.0
